STARLINK-30227          
1 57505U 23113L   26068.22529593  .00032605  00000+0  15711-2 0  9993
2 57505  43.0053   4.8681 0002789 225.8359 134.2260 15.18160462143769
ROADS 1                 
1 64535U 25135H   26068.85447441  .00009066  00000+0  40940-3 0  9998
2 64535  97.4546 184.7054 0005263 153.6670 206.4834 15.21189252 39750
